{
  "type": "FeatureCollection",
  "features": [
    {
      "type": "Feature",
      "properties": {
        "norad_id": 34056,
        "name": "COSMOS 2251 DEB",
        "group": "cosmos-2251-debris",
        "lat": -66.2857810118106,
        "lon": -80.84866096284898,
        "alt_km": 905.8369554013616,
        "timestamp": "2025-12-22T16:55:17.858419+00:00",
        "meta_object_name": "COSMOS 2251 DEB",
        "meta_object_id": "1993-036JT",
        "meta_epoch": "2025-12-22T05:52:16.411296",
        "meta_mean_motion": 14.20588048,
        "meta_eccentricity": 0.0123705,
        "meta_inclination": 74.0585,
        "meta_ra_of_asc_node": 59.3812,
        "meta_arg_of_pericenter": 104.7073,
        "meta_mean_anomaly": 312.9482,
        "meta_ephemeris_type": 0,
        "meta_classification_type": "U",
        "meta_norad_cat_id": 34056,
        "meta_element_set_no": 999,
        "meta_rev_at_epoch": 86546,
        "meta_bstar": 0.00064659063,
        "meta_mean_motion_dot": 1.478e-05,
        "meta_mean_motion_ddot": 0,
        "tle_line1": "1 34056U 93036JT  25356.24463439  .00001478  00000+0  64659-3 0  9997",
        "tle_line2": "2 34056  74.0585  59.3812 0123705 104.7073 312.9482 14.20588048865465"
      },
      "geometry": {
        "type": "Point",
        "coordinates": [
          -80.84866096284898,
          -66.2857810118106
        ]
      }
    },
    {
      "type": "Feature",
      "properties": {
        "norad_id": 34058,
        "name": "COSMOS 2251 DEB",
        "group": "cosmos-2251-debris",
        "lat": -68.36982447612374,
        "lon": 28.58050020089795,
        "alt_km": 1095.2083678966046,
        "timestamp": "2025-12-22T16:55:17.858429+00:00",
        "meta_object_name": "COSMOS 2251 DEB",
        "meta_object_id": "1993-036JV",
        "meta_epoch": "2025-12-22T03:54:21.153312",
        "meta_mean_motion": 13.56090407,
        "meta_eccentricity": 0.03775296,
        "meta_inclination": 73.9315,
        "meta_ra_of_asc_node": 162.8386,
        "meta_arg_of_pericenter": 156.2846,
        "meta_mean_anomaly": 328.1397,
        "meta_ephemeris_type": 0,
        "meta_classification_type": "U",
        "meta_norad_cat_id": 34058,
        "meta_element_set_no": 999,
        "meta_rev_at_epoch": 83270,
        "meta_bstar": 0.0006713158,
        "meta_mean_motion_dot": 7.25e-06,
        "meta_mean_motion_ddot": 0,
        "tle_line1": "1 34058U 93036JV  25356.16274483  .00000725  00000+0  67132-3 0  9992",
        "tle_line2": "2 34058  73.9315 162.8386 0377529 156.2846 328.1397 13.56090407832707"
      },
      "geometry": {
        "type": "Point",
        "coordinates": [
          28.58050020089795,
          -68.36982447612374
        ]
      }
    },
    {
      "type": "Feature",
      "properties": {
        "norad_id": 34059,
        "name": "COSMOS 2251 DEB",
        "group": "cosmos-2251-debris",
        "lat": -14.856803922119116,
        "lon": 163.12182752814135,
        "alt_km": 722.6420832440481,
        "timestamp": "2025-12-22T16:55:17.858439+00:00",
        "meta_object_name": "COSMOS 2251 DEB",
        "meta_object_id": "1993-036JW",
        "meta_epoch": "2025-12-22T06:13:26.988096",
        "meta_mean_motion": 14.53000527,
        "meta_eccentricity": 0.0018445,
        "meta_inclination": 74.0368,
        "meta_ra_of_asc_node": 168.3172,
        "meta_arg_of_pericenter": 244.751,
        "meta_mean_anomaly": 289.1254,
        "meta_ephemeris_type": 0,
        "meta_classification_type": "U",
        "meta_norad_cat_id": 34059,
        "meta_element_set_no": 999,
        "meta_rev_at_epoch": 88597,
        "meta_bstar": 0.00077231566,
        "meta_mean_motion_dot": 3.167e-05,
        "meta_mean_motion_ddot": 0,
        "tle_line1": "1 34059U 93036JW  25356.25934014  .00003167  00000+0  77232-3 0  9991",
        "tle_line2": "2 34059  74.0368 168.3172 0018445 244.7510 289.1254 14.53000527885979"
      },
      "geometry": {
        "type": "Point",
        "coordinates": [
          163.12182752814135,
          -14.856803922119116
        ]
      }
    },
    {
      "type": "Feature",
      "properties": {
        "norad_id": 34061,
        "name": "COSMOS 2251 DEB",
        "group": "cosmos-2251-debris",
        "lat": -55.82531639950778,
        "lon": 89.90074037038703,
        "alt_km": 761.6125687004942,
        "timestamp": "2025-12-22T16:55:17.858450+00:00",
        "meta_object_name": "COSMOS 2251 DEB",
        "meta_object_id": "1993-036JY",
        "meta_epoch": "2025-12-22T03:10:38.827776",
        "meta_mean_motion": 14.40375806,
        "meta_eccentricity": 0.00208257,
        "meta_inclination": 74.0388,
        "meta_ra_of_asc_node": 246.0278,
        "meta_arg_of_pericenter": 321.5694,
        "meta_mean_anomaly": 189.6619,
        "meta_ephemeris_type": 0,
        "meta_classification_type": "U",
        "meta_norad_cat_id": 34061,
        "meta_element_set_no": 999,
        "meta_rev_at_epoch": 88315,
        "meta_bstar": 0.00026251698,
        "meta_mean_motion_dot": 8.09e-06,
        "meta_mean_motion_ddot": 0,
        "tle_line1": "1 34061U 93036JY  25356.13239384  .00000809  00000+0  26252-3 0  9995",
        "tle_line2": "2 34061  74.0388 246.0278 0020825 321.5694 189.6619 14.40375806883155"
      },
      "geometry": {
        "type": "Point",
        "coordinates": [
          89.90074037038703,
          -55.82531639950778
        ]
      }
    },
    {
      "type": "Feature",
      "properties": {
        "norad_id": 34062,
        "name": "COSMOS 2251 DEB",
        "group": "cosmos-2251-debris",
        "lat": -56.217711254878466,
        "lon": 93.0851110530297,
        "alt_km": 651.9066544361312,
        "timestamp": "2025-12-22T16:55:17.858460+00:00",
        "meta_object_name": "COSMOS 2251 DEB",
        "meta_object_id": "1993-036JZ",
        "meta_epoch": "2025-12-21T19:08:56.488128",
        "meta_mean_motion": 14.78994852,
        "meta_eccentricity": 0.00734099,
        "meta_inclination": 74.0286,
        "meta_ra_of_asc_node": 120.2166,
        "meta_arg_of_pericenter": 197.441,
        "meta_mean_anomaly": 313.706,
        "meta_ephemeris_type": 0,
        "meta_classification_type": "U",
        "meta_norad_cat_id": 34062,
        "meta_element_set_no": 999,
        "meta_rev_at_epoch": 88729,
        "meta_bstar": 0.002347246,
        "meta_mean_motion_dot": 0.0001816,
        "meta_mean_motion_ddot": 0,
        "tle_line1": "1 34062U 93036JZ  25355.79787602  .00018160  00000+0  23472-2 0  9997",
        "tle_line2": "2 34062  74.0286 120.2166 0073409 197.4410 313.7060 14.78994852887292"
      },
      "geometry": {
        "type": "Point",
        "coordinates": [
          93.0851110530297,
          -56.217711254878466
        ]
      }
    },
    {
      "type": "Feature",
      "properties": {
        "norad_id": 34064,
        "name": "COSMOS 2251 DEB",
        "group": "cosmos-2251-debris",
        "lat": -68.74646296013391,
        "lon": -155.02415910159144,
        "alt_km": 744.2548677729455,
        "timestamp": "2025-12-22T16:55:17.858471+00:00",
        "meta_object_name": "COSMOS 2251 DEB",
        "meta_object_id": "1993-036KB",
        "meta_epoch": "2025-12-21T19:56:20.625792",
        "meta_mean_motion": 14.42365983,
        "meta_eccentricity": 0.00223535,
        "meta_inclination": 74.0319,
        "meta_ra_of_asc_node": 254.0025,
        "meta_arg_of_pericenter": 319.2796,
        "meta_mean_anomaly": 107.2455,
        "meta_ephemeris_type": 0,
        "meta_classification_type": "U",
        "meta_norad_cat_id": 34064,
        "meta_element_set_no": 999,
        "meta_rev_at_epoch": 88273,
        "meta_bstar": 0.00036796563,
        "meta_mean_motion_dot": 1.193e-05,
        "meta_mean_motion_ddot": 0,
        "tle_line1": "1 34064U 93036KB  25355.83079428  .00001193  00000+0  36797-3 0  9997",
        "tle_line2": "2 34064  74.0319 254.0025 0022353 319.2796 107.2455 14.42365983882730"
      },
      "geometry": {
        "type": "Point",
        "coordinates": [
          -155.02415910159144,
          -68.74646296013391
        ]
      }
    },
    {
      "type": "Feature",
      "properties": {
        "norad_id": 34065,
        "name": "COSMOS 2251 DEB",
        "group": "cosmos-2251-debris",
        "lat": 34.3279700055879,
        "lon": 48.493158954516296,
        "alt_km": 774.0034994258594,
        "timestamp": "2025-12-22T16:55:17.858481+00:00",
        "meta_object_name": "COSMOS 2251 DEB",
        "meta_object_id": "1993-036KC",
        "meta_epoch": "2025-12-21T17:09:44.057664",
        "meta_mean_motion": 14.38071574,
        "meta_eccentricity": 0.00167339,
        "meta_inclination": 74.0351,
        "meta_ra_of_asc_node": 241.589,
        "meta_arg_of_pericenter": 337.5842,
        "meta_mean_anomaly": 83.283,
        "meta_ephemeris_type": 0,
        "meta_classification_type": "U",
        "meta_norad_cat_id": 34065,
        "meta_element_set_no": 999,
        "meta_rev_at_epoch": 88334,
        "meta_bstar": 0.0001295422,
        "meta_mean_motion_dot": 3.67e-06,
        "meta_mean_motion_ddot": 0,
        "tle_line1": "1 34065U 93036KC  25355.71509326  .00000367  00000+0  12954-3 0  9991",
        "tle_line2": "2 34065  74.0351 241.5890 0016733 337.5842  83.2830 14.38071574883341"
      },
      "geometry": {
        "type": "Point",
        "coordinates": [
          48.493158954516296,
          34.3279700055879
        ]
      }
    }
  ]
}